GLOBALSTAR M075         
1 37192U 10054E   24284.02539365 -.00000059  00000+0  25067-3 0  9992
2 37192  51.9942 223.2246 0000649  74.7945   4.0136 12.62285811644251
GLOBALSTAR M073         
1 37193U 10054F   24284.57168977 -.00000078  00000+0  14529-3 0  9992
2 37193  52.0038 135.1908 0000917  94.7356 307.2389 12.62271089646311
GLOBALSTAR M083         
1 37739U 11033A   24284.84611840 -.00000081  00000+0  12493-3 0  9990
2 37739  51.9849  83.4242 0000952  87.3485  62.8885 12.62266000615724
GLOBALSTAR M088         
1 37740U 11033B   24284.47254478 -.00000071  00000+0  18123-3 0  9996
2 37740  51.9763 350.2659 0000579  94.4075 278.4720 12.62262896610869
GLOBALSTAR M091         
1 37741U 11033C   24284.40716441 -.00000068  00000+0  20223-3 0  9993
2 37741  52.0004 313.5772 0000629  69.0305 304.6176 12.62268241611642
GLOBALSTAR M085         
1 37742U 11033D   24284.42629705 -.00000063  00000+0  22546-3 0  9997
2 37742  51.9857 264.7749 0000685  56.6801 105.2464 12.62267051612153
GLOBALSTAR M081         
1 37743U 11033E   24284.45390274 -.00000065  00000+0  21477-3 0  9991
2 37743  51.9952 267.3232 0000730  78.1551  89.4907 12.62270705612300
GLOBALSTAR M089         
1 37744U 11033F   24284.57378738 -.00000073  00000+0  17246-3 0  9994
2 37744  51.9923 221.2346 0000510  97.0357  74.0178 12.62270268613163
